{
  "type": "FeatureCollection",
  "features": [
    {
      "type": "Feature",
      "geometry": {
        "type": "Point",
        "coordinates": [
          -18.002516666666665,
          63.770125
        ]
      },
      "properties": {
        "title": "Airplane Wing Above Clouds",
        "photo": "https://res.cloudinary.com/dk143pqi/image/upload/c_fill,f_auto,g_auto,h_300,q_auto,w_400/v1/portfolio-map/photos/airplane-wing-above-clouds",
        "photoFull": "https://res.cloudinary.com/dk143pqi/image/upload/c_limit,f_auto,h_1200,q_auto,w_1200/v1/portfolio-map/photos/airplane-wing-above-clouds",
        "publicId": "portfolio-map/photos/airplane-wing-above-clouds"
      }
    },
    {
      "type": "Feature",
      "geometry": {
        "type": "Point",
        "coordinates": [
          -21.638144444444443,
          64.13320277777777
        ]
      },
      "properties": {
        "title": "Atv Rider On Moorland Road",
        "photo": "https://res.cloudinary.com/dk143pqi/image/upload/c_fill,f_auto,g_auto,h_300,q_auto,w_400/v1/portfolio-map/photos/atv-rider-on-moorland-road",
        "photoFull": "https://res.cloudinary.com/dk143pqi/image/upload/c_limit,f_auto,h_1200,q_auto,w_1200/v1/portfolio-map/photos/atv-rider-on-moorland-road",
        "publicId": "portfolio-map/photos/atv-rider-on-moorland-road"
      }
    },
    {
      "type": "Feature",
      "geometry": {
        "type": "Point",
        "coordinates": [
          -20.303002777777778,
          64.30915
        ]
      },
      "properties": {
        "title": "Batman Riding Croissant Van",
        "photo": "https://res.cloudinary.com/dk143pqi/image/upload/c_fill,f_auto,g_auto,h_300,q_auto,w_400/v1/portfolio-map/photos/batman-riding-croissant-van",
        "photoFull": "https://res.cloudinary.com/dk143pqi/image/upload/c_limit,f_auto,h_1200,q_auto,w_1200/v1/portfolio-map/photos/batman-riding-croissant-van",
        "publicId": "portfolio-map/photos/batman-riding-croissant-van"
      }
    },
    {
      "type": "Feature",
      "geometry": {
        "type": "Point",
        "coordinates": [
          121.50580555555555,
          25.04376666666667
        ]
      },
      "properties": {
        "title": "Beef Noodle Soup Dumplings",
        "photo": "https://res.cloudinary.com/dk143pqi/image/upload/c_fill,f_auto,g_auto,h_300,q_auto,w_400/v1/portfolio-map/photos/beef-noodle-soup-dumplings",
        "photoFull": "https://res.cloudinary.com/dk143pqi/image/upload/c_limit,f_auto,h_1200,q_auto,w_1200/v1/portfolio-map/photos/beef-noodle-soup-dumplings",
        "publicId": "portfolio-map/photos/beef-noodle-soup-dumplings"
      }
    },
    {
      "type": "Feature",
      "geometry": {
        "type": "Point",
        "coordinates": [
          -157.67672777777776,
          21.282530555555553
        ]
      },
      "properties": {
        "title": "Black Lava Beach Turquoise Ocean",
        "photo": "https://res.cloudinary.com/dk143pqi/image/upload/c_fill,f_auto,g_auto,h_300,q_auto,w_400/v1/portfolio-map/photos/black-lava-beach-turquoise-ocean",
        "photoFull": "https://res.cloudinary.com/dk143pqi/image/upload/c_limit,f_auto,h_1200,q_auto,w_1200/v1/portfolio-map/photos/black-lava-beach-turquoise-ocean",
        "publicId": "portfolio-map/photos/black-lava-beach-turquoise-ocean"
      }
    },
    {
      "type": "Feature",
      "geometry": {
        "type": "Point",
        "coordinates": [
          -73.79370833333333,
          40.80518055555555
        ]
      },
      "properties": {
        "title": "Bridge Silhouette Beneath Dramatic Clouds",
        "photo": "https://res.cloudinary.com/dk143pqi/image/upload/c_fill,f_auto,g_auto,h_300,q_auto,w_400/v1/portfolio-map/photos/bridge-silhouette-beneath-dramatic-clouds",
        "photoFull": "https://res.cloudinary.com/dk143pqi/image/upload/c_limit,f_auto,h_1200,q_auto,w_1200/v1/portfolio-map/photos/bridge-silhouette-beneath-dramatic-clouds",
        "publicId": "portfolio-map/photos/bridge-silhouette-beneath-dramatic-clouds"
      }
    },
    {
      "type": "Feature",
      "geometry": {
        "type": "Point",
        "coordinates": [
          -157.6868138888889,
          21.28501388888889
        ]
      },
      "properties": {
        "title": "Descending Stairs Ocean Valley View",
        "photo": "https://res.cloudinary.com/dk143pqi/image/upload/c_fill,f_auto,g_auto,h_300,q_auto,w_400/v1/portfolio-map/photos/descending-stairs-ocean-valley-view",
        "photoFull": "https://res.cloudinary.com/dk143pqi/image/upload/c_limit,f_auto,h_1200,q_auto,w_1200/v1/portfolio-map/photos/descending-stairs-ocean-valley-view",
        "publicId": "portfolio-map/photos/descending-stairs-ocean-valley-view"
      }
    },
    {
      "type": "Feature",
      "geometry": {
        "type": "Point",
        "coordinates": [
          -84.37083333333332,
          33.73342777777778
        ]
      },
      "properties": {
        "title": "Elephant At Zoo Exhibit",
        "photo": "https://res.cloudinary.com/dk143pqi/image/upload/c_fill,f_auto,g_auto,h_300,q_auto,w_400/v1/portfolio-map/photos/elephant-at-zoo-exhibit",
        "photoFull": "https://res.cloudinary.com/dk143pqi/image/upload/c_limit,f_auto,h_1200,q_auto,w_1200/v1/portfolio-map/photos/elephant-at-zoo-exhibit",
        "publicId": "portfolio-map/photos/elephant-at-zoo-exhibit"
      }
    },
    {
      "type": "Feature",
      "geometry": {
        "type": "Point",
        "coordinates": [
          -73.9925138888889,
          40.750972222222224
        ]
      },
      "properties": {
        "title": "Four Friends Knicks Game",
        "photo": "https://res.cloudinary.com/dk143pqi/image/upload/c_fill,f_auto,g_auto,h_300,q_auto,w_400/v1/portfolio-map/photos/four-friends-knicks-game",
        "photoFull": "https://res.cloudinary.com/dk143pqi/image/upload/c_limit,f_auto,h_1200,q_auto,w_1200/v1/portfolio-map/photos/four-friends-knicks-game",
        "publicId": "portfolio-map/photos/four-friends-knicks-game"
      }
    },
    {
      "type": "Feature",
      "geometry": {
        "type": "Point",
        "coordinates": [
          -74.07695833333332,
          40.64465
        ]
      },
      "properties": {
        "title": "Four Runners Marathon Celebration",
        "photo": "https://res.cloudinary.com/dk143pqi/image/upload/c_fill,f_auto,g_auto,h_300,q_auto,w_400/v1/portfolio-map/photos/four-runners-marathon-celebration",
        "photoFull": "https://res.cloudinary.com/dk143pqi/image/upload/c_limit,f_auto,h_1200,q_auto,w_1200/v1/portfolio-map/photos/four-runners-marathon-celebration",
        "publicId": "portfolio-map/photos/four-runners-marathon-celebration"
      }
    },
    {
      "type": "Feature",
      "geometry": {
        "type": "Point",
        "coordinates": [
          -73.98520555555555,
          40.574444444444445
        ]
      },
      "properties": {
        "title": "Friends At Coney Island",
        "photo": "https://res.cloudinary.com/dk143pqi/image/upload/c_fill,f_auto,g_auto,h_300,q_auto,w_400/v1/portfolio-map/photos/friends-at-coney-island",
        "photoFull": "https://res.cloudinary.com/dk143pqi/image/upload/c_limit,f_auto,h_1200,q_auto,w_1200/v1/portfolio-map/photos/friends-at-coney-island",
        "publicId": "portfolio-map/photos/friends-at-coney-island"
      }
    },
    {
      "type": "Feature",
      "geometry": {
        "type": "Point",
        "coordinates": [
          -96.7622,
          32.780322222222225
        ]
      },
      "properties": {
        "title": "Friends At Summer Festival",
        "photo": "https://res.cloudinary.com/dk143pqi/image/upload/c_fill,f_auto,g_auto,h_300,q_auto,w_400/v1/portfolio-map/photos/friends-at-summer-festival",
        "photoFull": "https://res.cloudinary.com/dk143pqi/image/upload/c_limit,f_auto,h_1200,q_auto,w_1200/v1/portfolio-map/photos/friends-at-summer-festival",
        "publicId": "portfolio-map/photos/friends-at-summer-festival"
      }
    },
    {
      "type": "Feature",
      "geometry": {
        "type": "Point",
        "coordinates": [
          -117.74137222222222,
          33.49765277777778
        ]
      },
      "properties": {
        "title": "Friends Beach Sunset Selfie",
        "photo": "https://res.cloudinary.com/dk143pqi/image/upload/c_fill,f_auto,g_auto,h_300,q_auto,w_400/v1/portfolio-map/photos/friends-beach-sunset-selfie",
        "photoFull": "https://res.cloudinary.com/dk143pqi/image/upload/c_limit,f_auto,h_1200,q_auto,w_1200/v1/portfolio-map/photos/friends-beach-sunset-selfie",
        "publicId": "portfolio-map/photos/friends-beach-sunset-selfie"
      }
    },
    {
      "type": "Feature",
      "geometry": {
        "type": "Point",
        "coordinates": [
          -118.35788055555555,
          34.14107222222222
        ]
      },
      "properties": {
        "title": "Friends Mario Store Visit",
        "photo": "https://res.cloudinary.com/dk143pqi/image/upload/c_fill,f_auto,g_auto,h_300,q_auto,w_400/v1/portfolio-map/photos/friends-mario-store-visit",
        "photoFull": "https://res.cloudinary.com/dk143pqi/image/upload/c_limit,f_auto,h_1200,q_auto,w_1200/v1/portfolio-map/photos/friends-mario-store-visit",
        "publicId": "portfolio-map/photos/friends-mario-store-visit"
      }
    },
    {
      "type": "Feature",
      "geometry": {
        "type": "Point",
        "coordinates": [
          127.67884722222223,
          26.21991111111111
        ]
      },
      "properties": {
        "title": "Friends Playful Dinner Photo",
        "photo": "https://res.cloudinary.com/dk143pqi/image/upload/c_fill,f_auto,g_auto,h_300,q_auto,w_400/v1/portfolio-map/photos/friends-playful-dinner-photo",
        "photoFull": "https://res.cloudinary.com/dk143pqi/image/upload/c_limit,f_auto,h_1200,q_auto,w_1200/v1/portfolio-map/photos/friends-playful-dinner-photo",
        "publicId": "portfolio-map/photos/friends-playful-dinner-photo"
      }
    },
    {
      "type": "Feature",
      "geometry": {
        "type": "Point",
        "coordinates": [
          -96.76238888888889,
          32.77993333333333
        ]
      },
      "properties": {
        "title": "Friends Posing Giant Statue",
        "photo": "https://res.cloudinary.com/dk143pqi/image/upload/c_fill,f_auto,g_auto,h_300,q_auto,w_400/v1/portfolio-map/photos/friends-posing-giant-statue",
        "photoFull": "https://res.cloudinary.com/dk143pqi/image/upload/c_limit,f_auto,h_1200,q_auto,w_1200/v1/portfolio-map/photos/friends-posing-giant-statue",
        "publicId": "portfolio-map/photos/friends-posing-giant-statue"
      }
    },
    {
      "type": "Feature",
      "geometry": {
        "type": "Point",
        "coordinates": [
          -73.95480277777779,
          40.722947222222224
        ]
      },
      "properties": {
        "title": "Friends Rooftop Manhattan Skyline",
        "photo": "https://res.cloudinary.com/dk143pqi/image/upload/c_fill,f_auto,g_auto,h_300,q_auto,w_400/v1/portfolio-map/photos/friends-rooftop-manhattan-skyline",
        "photoFull": "https://res.cloudinary.com/dk143pqi/image/upload/c_limit,f_auto,h_1200,q_auto,w_1200/v1/portfolio-map/photos/friends-rooftop-manhattan-skyline",
        "publicId": "portfolio-map/photos/friends-rooftop-manhattan-skyline"
      }
    },
    {
      "type": "Feature",
      "geometry": {
        "type": "Point",
        "coordinates": [
          -73.9892888888889,
          40.72013611111111
        ]
      },
      "properties": {
        "title": "Friends Seafood Dinner Gathering",
        "photo": "https://res.cloudinary.com/dk143pqi/image/upload/c_fill,f_auto,g_auto,h_300,q_auto,w_400/v1/portfolio-map/photos/friends-seafood-dinner-gathering",
        "photoFull": "https://res.cloudinary.com/dk143pqi/image/upload/c_limit,f_auto,h_1200,q_auto,w_1200/v1/portfolio-map/photos/friends-seafood-dinner-gathering",
        "publicId": "portfolio-map/photos/friends-seafood-dinner-gathering"
      }
    },
    {
      "type": "Feature",
      "geometry": {
        "type": "Point",
        "coordinates": [
          -74.05161388888888,
          41.80401944444444
        ]
      },
      "properties": {
        "title": "Friends Smiling In Car",
        "photo": "https://res.cloudinary.com/dk143pqi/image/upload/c_fill,f_auto,g_auto,h_300,q_auto,w_400/v1/portfolio-map/photos/friends-smiling-in-car",
        "photoFull": "https://res.cloudinary.com/dk143pqi/image/upload/c_limit,f_auto,h_1200,q_auto,w_1200/v1/portfolio-map/photos/friends-smiling-in-car",
        "publicId": "portfolio-map/photos/friends-smiling-in-car"
      }
    },
    {
      "type": "Feature",
      "geometry": {
        "type": "Point",
        "coordinates": [
          -97.03668888888889,
          32.88611944444445
        ]
      },
      "properties": {
        "title": "Friends Smiling On Airplane",
        "photo": "https://res.cloudinary.com/dk143pqi/image/upload/c_fill,f_auto,g_auto,h_300,q_auto,w_400/v1/portfolio-map/photos/friends-smiling-on-airplane",
        "photoFull": "https://res.cloudinary.com/dk143pqi/image/upload/c_limit,f_auto,h_1200,q_auto,w_1200/v1/portfolio-map/photos/friends-smiling-on-airplane",
        "publicId": "portfolio-map/photos/friends-smiling-on-airplane"
      }
    },
    {
      "type": "Feature",
      "geometry": {
        "type": "Point",
        "coordinates": [
          -96.82080833333333,
          32.781974999999996
        ]
      },
      "properties": {
        "title": "Friends Sunset Bridge Selfie",
        "photo": "https://res.cloudinary.com/dk143pqi/image/upload/c_fill,f_auto,g_auto,h_300,q_auto,w_400/v1/portfolio-map/photos/friends-sunset-bridge-selfie",
        "photoFull": "https://res.cloudinary.com/dk143pqi/image/upload/c_limit,f_auto,h_1200,q_auto,w_1200/v1/portfolio-map/photos/friends-sunset-bridge-selfie",
        "publicId": "portfolio-map/photos/friends-sunset-bridge-selfie"
      }
    },
    {
      "type": "Feature",
      "geometry": {
        "type": "Point",
        "coordinates": [
          -73.82936944444444,
          40.76060833333333
        ]
      },
      "properties": {
        "title": "Friends With Chinese Dragon Dancers",
        "photo": "https://res.cloudinary.com/dk143pqi/image/upload/c_fill,f_auto,g_auto,h_300,q_auto,w_400/v1/portfolio-map/photos/friends-with-chinese-dragon-dancers",
        "photoFull": "https://res.cloudinary.com/dk143pqi/image/upload/c_limit,f_auto,h_1200,q_auto,w_1200/v1/portfolio-map/photos/friends-with-chinese-dragon-dancers",
        "publicId": "portfolio-map/photos/friends-with-chinese-dragon-dancers"
      }
    },
    {
      "type": "Feature",
      "geometry": {
        "type": "Point",
        "coordinates": [
          -117.74144722222222,
          33.49763055555556
        ]
      },
      "properties": {
        "title": "Golden Sunset Beach Footprints",
        "photo": "https://res.cloudinary.com/dk143pqi/image/upload/c_fill,f_auto,g_auto,h_300,q_auto,w_400/v1/portfolio-map/photos/golden-sunset-beach-footprints",
        "photoFull": "https://res.cloudinary.com/dk143pqi/image/upload/c_limit,f_auto,h_1200,q_auto,w_1200/v1/portfolio-map/photos/golden-sunset-beach-footprints",
        "publicId": "portfolio-map/photos/golden-sunset-beach-footprints"
      }
    },
    {
      "type": "Feature",
      "geometry": {
        "type": "Point",
        "coordinates": [
          -117.74119444444445,
          33.497791666666664
        ]
      },
      "properties": {
        "title": "Golden Sunset On Beach",
        "photo": "https://res.cloudinary.com/dk143pqi/image/upload/c_fill,f_auto,g_auto,h_300,q_auto,w_400/v1/portfolio-map/photos/golden-sunset-on-beach",
        "photoFull": "https://res.cloudinary.com/dk143pqi/image/upload/c_limit,f_auto,h_1200,q_auto,w_1200/v1/portfolio-map/photos/golden-sunset-on-beach",
        "publicId": "portfolio-map/photos/golden-sunset-on-beach"
      }
    },
    {
      "type": "Feature",
      "geometry": {
        "type": "Point",
        "coordinates": [
          -73.12603055555554,
          40.91695
        ]
      },
      "properties": {
        "title": "Graduation Ceremony Family Portrait",
        "photo": "https://res.cloudinary.com/dk143pqi/image/upload/c_fill,f_auto,g_auto,h_300,q_auto,w_400/v1/portfolio-map/photos/graduation-ceremony-family-portrait",
        "photoFull": "https://res.cloudinary.com/dk143pqi/image/upload/c_limit,f_auto,h_1200,q_auto,w_1200/v1/portfolio-map/photos/graduation-ceremony-family-portrait",
        "publicId": "portfolio-map/photos/graduation-ceremony-family-portrait"
      }
    },
    {
      "type": "Feature",
      "geometry": {
        "type": "Point",
        "coordinates": [
          -73.12605277777777,
          40.91695277777777
        ]
      },
      "properties": {
        "title": "Graduation Day Celebration Photo",
        "photo": "https://res.cloudinary.com/dk143pqi/image/upload/c_fill,f_auto,g_auto,h_300,q_auto,w_400/v1/portfolio-map/photos/graduation-day-celebration-photo",
        "photoFull": "https://res.cloudinary.com/dk143pqi/image/upload/c_limit,f_auto,h_1200,q_auto,w_1200/v1/portfolio-map/photos/graduation-day-celebration-photo",
        "publicId": "portfolio-map/photos/graduation-day-celebration-photo"
      }
    },
    {
      "type": "Feature",
      "geometry": {
        "type": "Point",
        "coordinates": [
          -88.56849722222222,
          20.68348888888889
        ]
      },
      "properties": {
        "title": "Group At Ancient Pyramid",
        "photo": "https://res.cloudinary.com/dk143pqi/image/upload/c_fill,f_auto,g_auto,h_300,q_auto,w_400/v1/portfolio-map/photos/group-at-ancient-pyramid",
        "photoFull": "https://res.cloudinary.com/dk143pqi/image/upload/c_limit,f_auto,h_1200,q_auto,w_1200/v1/portfolio-map/photos/group-at-ancient-pyramid",
        "publicId": "portfolio-map/photos/group-at-ancient-pyramid"
      }
    },
    {
      "type": "Feature",
      "geometry": {
        "type": "Point",
        "coordinates": [
          -115.20265833333333,
          36.12565277777778
        ]
      },
      "properties": {
        "title": "Group Holiday Portrait Lit Tree",
        "photo": "https://res.cloudinary.com/dk143pqi/image/upload/c_fill,f_auto,g_auto,h_300,q_auto,w_400/v1/portfolio-map/photos/group-holiday-portrait-lit-tree",
        "photoFull": "https://res.cloudinary.com/dk143pqi/image/upload/c_limit,f_auto,h_1200,q_auto,w_1200/v1/portfolio-map/photos/group-holiday-portrait-lit-tree",
        "publicId": "portfolio-map/photos/group-holiday-portrait-lit-tree"
      }
    },
    {
      "type": "Feature",
      "geometry": {
        "type": "Point",
        "coordinates": [
          -73.99478888888889,
          40.72573333333334
        ]
      },
      "properties": {
        "title": "Guy With Small Dog Soho",
        "photo": "https://res.cloudinary.com/dk143pqi/image/upload/c_fill,f_auto,g_auto,h_300,q_auto,w_400/v1/portfolio-map/photos/guy-with-small-dog-soho",
        "photoFull": "https://res.cloudinary.com/dk143pqi/image/upload/c_limit,f_auto,h_1200,q_auto,w_1200/v1/portfolio-map/photos/guy-with-small-dog-soho",
        "publicId": "portfolio-map/photos/guy-with-small-dog-soho"
      }
    },
    {
      "type": "Feature",
      "geometry": {
        "type": "Point",
        "coordinates": [
          121.55350555555555,
          25.170719444444444
        ]
      },
      "properties": {
        "title": "Hikers At Mountain Summit Marker",
        "photo": "https://res.cloudinary.com/dk143pqi/image/upload/c_fill,f_auto,g_auto,h_300,q_auto,w_400/v1/portfolio-map/photos/hikers-at-mountain-summit-marker",
        "photoFull": "https://res.cloudinary.com/dk143pqi/image/upload/c_limit,f_auto,h_1200,q_auto,w_1200/v1/portfolio-map/photos/hikers-at-mountain-summit-marker",
        "publicId": "portfolio-map/photos/hikers-at-mountain-summit-marker"
      }
    },
    {
      "type": "Feature",
      "geometry": {
        "type": "Point",
        "coordinates": [
          -74.27666388888889,
          41.714686111111114
        ]
      },
      "properties": {
        "title": "Hikers At Scenic Waterfall View",
        "photo": "https://res.cloudinary.com/dk143pqi/image/upload/c_fill,f_auto,g_auto,h_300,q_auto,w_400/v1/portfolio-map/photos/hikers-at-scenic-waterfall-view",
        "photoFull": "https://res.cloudinary.com/dk143pqi/image/upload/c_limit,f_auto,h_1200,q_auto,w_1200/v1/portfolio-map/photos/hikers-at-scenic-waterfall-view",
        "publicId": "portfolio-map/photos/hikers-at-scenic-waterfall-view"
      }
    },
    {
      "type": "Feature",
      "geometry": {
        "type": "Point",
        "coordinates": [
          -116.13309444444444,
          33.98929166666667
        ]
      },
      "properties": {
        "title": "Joshua Tree Desert Landscape",
        "photo": "https://res.cloudinary.com/dk143pqi/image/upload/c_fill,f_auto,g_auto,h_300,q_auto,w_400/v1/portfolio-map/photos/joshua-tree-desert-landscape",
        "photoFull": "https://res.cloudinary.com/dk143pqi/image/upload/c_limit,f_auto,h_1200,q_auto,w_1200/v1/portfolio-map/photos/joshua-tree-desert-landscape",
        "publicId": "portfolio-map/photos/joshua-tree-desert-landscape"
      }
    },
    {
      "type": "Feature",
      "geometry": {
        "type": "Point",
        "coordinates": [
          -157.65068055555557,
          21.30931388888889
        ]
      },
      "properties": {
        "title": "Lighthouse On Rocky Island",
        "photo": "https://res.cloudinary.com/dk143pqi/image/upload/c_fill,f_auto,g_auto,h_300,q_auto,w_400/v1/portfolio-map/photos/lighthouse-on-rocky-island",
        "photoFull": "https://res.cloudinary.com/dk143pqi/image/upload/c_limit,f_auto,h_1200,q_auto,w_1200/v1/portfolio-map/photos/lighthouse-on-rocky-island",
        "publicId": "portfolio-map/photos/lighthouse-on-rocky-island"
      }
    },
    {
      "type": "Feature",
      "geometry": {
        "type": "Point",
        "coordinates": [
          -71.62757222222221,
          44.037844444444445
        ]
      },
      "properties": {
        "title": "Misty Alpine Ski Resort",
        "photo": "https://res.cloudinary.com/dk143pqi/image/upload/c_fill,f_auto,g_auto,h_300,q_auto,w_400/v1/portfolio-map/photos/misty-alpine-ski-resort",
        "photoFull": "https://res.cloudinary.com/dk143pqi/image/upload/c_limit,f_auto,h_1200,q_auto,w_1200/v1/portfolio-map/photos/misty-alpine-ski-resort",
        "publicId": "portfolio-map/photos/misty-alpine-ski-resort"
      }
    },
    {
      "type": "Feature",
      "geometry": {
        "type": "Point",
        "coordinates": [
          -71.61974444444444,
          44.03483611111111
        ]
      },
      "properties": {
        "title": "Mountain Ski Lift Station",
        "photo": "https://res.cloudinary.com/dk143pqi/image/upload/c_fill,f_auto,g_auto,h_300,q_auto,w_400/v1/portfolio-map/photos/mountain-ski-lift-station",
        "photoFull": "https://res.cloudinary.com/dk143pqi/image/upload/c_limit,f_auto,h_1200,q_auto,w_1200/v1/portfolio-map/photos/mountain-ski-lift-station",
        "publicId": "portfolio-map/photos/mountain-ski-lift-station"
      }
    },
    {
      "type": "Feature",
      "geometry": {
        "type": "Point",
        "coordinates": [
          -73.97383888888889,
          40.767783333333334
        ]
      },
      "properties": {
        "title": "Nba Basketball Food Truck Event",
        "photo": "https://res.cloudinary.com/dk143pqi/image/upload/c_fill,f_auto,g_auto,h_300,q_auto,w_400/v1/portfolio-map/photos/nba-basketball-food-truck-event",
        "photoFull": "https://res.cloudinary.com/dk143pqi/image/upload/c_limit,f_auto,h_1200,q_auto,w_1200/v1/portfolio-map/photos/nba-basketball-food-truck-event",
        "publicId": "portfolio-map/photos/nba-basketball-food-truck-event"
      }
    },
    {
      "type": "Feature",
      "geometry": {
        "type": "Point",
        "coordinates": [
          -118.25031944444444,
          34.04785555555555
        ]
      },
      "properties": {
        "title": "Person Reading Library Nook",
        "photo": "https://res.cloudinary.com/dk143pqi/image/upload/c_fill,f_auto,g_auto,h_300,q_auto,w_400/v1/portfolio-map/photos/person-reading-library-nook",
        "photoFull": "https://res.cloudinary.com/dk143pqi/image/upload/c_limit,f_auto,h_1200,q_auto,w_1200/v1/portfolio-map/photos/person-reading-library-nook",
        "publicId": "portfolio-map/photos/person-reading-library-nook"
      }
    },
    {
      "type": "Feature",
      "geometry": {
        "type": "Point",
        "coordinates": [
          -118.92379722222223,
          34.218558333333334
        ]
      },
      "properties": {
        "title": "Person Sitting On Rocky Overlook",
        "photo": "https://res.cloudinary.com/dk143pqi/image/upload/c_fill,f_auto,g_auto,h_300,q_auto,w_400/v1/portfolio-map/photos/person-sitting-on-rocky-overlook",
        "photoFull": "https://res.cloudinary.com/dk143pqi/image/upload/c_limit,f_auto,h_1200,q_auto,w_1200/v1/portfolio-map/photos/person-sitting-on-rocky-overlook",
        "publicId": "portfolio-map/photos/person-sitting-on-rocky-overlook"
      }
    },
    {
      "type": "Feature",
      "geometry": {
        "type": "Point",
        "coordinates": [
          -117.74140833333334,
          33.497661111111114
        ]
      },
      "properties": {
        "title": "Rainbow Over Beach Homes",
        "photo": "https://res.cloudinary.com/dk143pqi/image/upload/c_fill,f_auto,g_auto,h_300,q_auto,w_400/v1/portfolio-map/photos/rainbow-over-beach-homes",
        "photoFull": "https://res.cloudinary.com/dk143pqi/image/upload/c_limit,f_auto,h_1200,q_auto,w_1200/v1/portfolio-map/photos/rainbow-over-beach-homes",
        "publicId": "portfolio-map/photos/rainbow-over-beach-homes"
      }
    },
    {
      "type": "Feature",
      "geometry": {
        "type": "Point",
        "coordinates": [
          -115.16156111111111,
          36.12071666666667
        ]
      },
      "properties": {
        "title": "Red Jumping Spider On Leaf",
        "photo": "https://res.cloudinary.com/dk143pqi/image/upload/c_fill,f_auto,g_auto,h_300,q_auto,w_400/v1/portfolio-map/photos/red-jumping-spider-on-leaf",
        "photoFull": "https://res.cloudinary.com/dk143pqi/image/upload/c_limit,f_auto,h_1200,q_auto,w_1200/v1/portfolio-map/photos/red-jumping-spider-on-leaf",
        "publicId": "portfolio-map/photos/red-jumping-spider-on-leaf"
      }
    },
    {
      "type": "Feature",
      "geometry": {
        "type": "Point",
        "coordinates": [
          -73.89744444444445,
          40.86210555555556
        ]
      },
      "properties": {
        "title": "Runners Under Stone Bridge",
        "photo": "https://res.cloudinary.com/dk143pqi/image/upload/c_fill,f_auto,g_auto,h_300,q_auto,w_400/v1/portfolio-map/photos/runners-under-stone-bridge",
        "photoFull": "https://res.cloudinary.com/dk143pqi/image/upload/c_limit,f_auto,h_1200,q_auto,w_1200/v1/portfolio-map/photos/runners-under-stone-bridge",
        "publicId": "portfolio-map/photos/runners-under-stone-bridge"
      }
    },
    {
      "type": "Feature",
      "geometry": {
        "type": "Point",
        "coordinates": [
          -74.05565,
          40.60160555555556
        ]
      },
      "properties": {
        "title": "Runners Under Suspension Bridge",
        "photo": "https://res.cloudinary.com/dk143pqi/image/upload/c_fill,f_auto,g_auto,h_300,q_auto,w_400/v1/portfolio-map/photos/runners-under-suspension-bridge",
        "photoFull": "https://res.cloudinary.com/dk143pqi/image/upload/c_limit,f_auto,h_1200,q_auto,w_1200/v1/portfolio-map/photos/runners-under-suspension-bridge",
        "publicId": "portfolio-map/photos/runners-under-suspension-bridge"
      }
    },
    {
      "type": "Feature",
      "geometry": {
        "type": "Point",
        "coordinates": [
          -157.68623333333335,
          21.285163888888892
        ]
      },
      "properties": {
        "title": "Smiling Hiker Mountain Landscape",
        "photo": "https://res.cloudinary.com/dk143pqi/image/upload/c_fill,f_auto,g_auto,h_300,q_auto,w_400/v1/portfolio-map/photos/smiling-hiker-mountain-landscape",
        "photoFull": "https://res.cloudinary.com/dk143pqi/image/upload/c_limit,f_auto,h_1200,q_auto,w_1200/v1/portfolio-map/photos/smiling-hiker-mountain-landscape",
        "publicId": "portfolio-map/photos/smiling-hiker-mountain-landscape"
      }
    },
    {
      "type": "Feature",
      "geometry": {
        "type": "Point",
        "coordinates": [
          -71.62815833333333,
          44.03780277777778
        ]
      },
      "properties": {
        "title": "Snow Covered Cabin Mountain Scene",
        "photo": "https://res.cloudinary.com/dk143pqi/image/upload/c_fill,f_auto,g_auto,h_300,q_auto,w_400/v1/portfolio-map/photos/snow-covered-cabin-mountain-scene",
        "photoFull": "https://res.cloudinary.com/dk143pqi/image/upload/c_limit,f_auto,h_1200,q_auto,w_1200/v1/portfolio-map/photos/snow-covered-cabin-mountain-scene",
        "publicId": "portfolio-map/photos/snow-covered-cabin-mountain-scene"
      }
    },
    {
      "type": "Feature",
      "geometry": {
        "type": "Point",
        "coordinates": [
          -72.80476388888889,
          43.60391666666667
        ]
      },
      "properties": {
        "title": "Snowy Mountain Valley Vista",
        "photo": "https://res.cloudinary.com/dk143pqi/image/upload/c_fill,f_auto,g_auto,h_300,q_auto,w_400/v1/portfolio-map/photos/snowy-mountain-valley-vista",
        "photoFull": "https://res.cloudinary.com/dk143pqi/image/upload/c_limit,f_auto,h_1200,q_auto,w_1200/v1/portfolio-map/photos/snowy-mountain-valley-vista",
        "publicId": "portfolio-map/photos/snowy-mountain-valley-vista"
      }
    },
    {
      "type": "Feature",
      "geometry": {
        "type": "Point",
        "coordinates": [
          -74.00934722222222,
          40.71315833333334
        ]
      },
      "properties": {
        "title": "Sports Championship Parade Downtown",
        "photo": "https://res.cloudinary.com/dk143pqi/image/upload/c_fill,f_auto,g_auto,h_300,q_auto,w_400/v1/portfolio-map/photos/sports-championship-parade-downtown",
        "photoFull": "https://res.cloudinary.com/dk143pqi/image/upload/c_limit,f_auto,h_1200,q_auto,w_1200/v1/portfolio-map/photos/sports-championship-parade-downtown",
        "publicId": "portfolio-map/photos/sports-championship-parade-downtown"
      }
    },
    {
      "type": "Feature",
      "geometry": {
        "type": "Point",
        "coordinates": [
          121.56927499999999,
          25.025447222222223
        ]
      },
      "properties": {
        "title": "Taipei 101 At Night Alley",
        "photo": "https://res.cloudinary.com/dk143pqi/image/upload/c_fill,f_auto,g_auto,h_300,q_auto,w_400/v1/portfolio-map/photos/taipei-101-at-night-alley",
        "photoFull": "https://res.cloudinary.com/dk143pqi/image/upload/c_limit,f_auto,h_1200,q_auto,w_1200/v1/portfolio-map/photos/taipei-101-at-night-alley",
        "publicId": "portfolio-map/photos/taipei-101-at-night-alley"
      }
    },
    {
      "type": "Feature",
      "geometry": {
        "type": "Point",
        "coordinates": [
          -157.8117527777778,
          21.259769444444444
        ]
      },
      "properties": {
        "title": "Three Friends Ocean Cliff View",
        "photo": "https://res.cloudinary.com/dk143pqi/image/upload/c_fill,f_auto,g_auto,h_300,q_auto,w_400/v1/portfolio-map/photos/three-friends-ocean-cliff-view",
        "photoFull": "https://res.cloudinary.com/dk143pqi/image/upload/c_limit,f_auto,h_1200,q_auto,w_1200/v1/portfolio-map/photos/three-friends-ocean-cliff-view",
        "publicId": "portfolio-map/photos/three-friends-ocean-cliff-view"
      }
    },
    {
      "type": "Feature",
      "geometry": {
        "type": "Point",
        "coordinates": [
          -158.05436666666668,
          21.635938888888887
        ]
      },
      "properties": {
        "title": "Three Friends Wearing Lei Hawaii",
        "photo": "https://res.cloudinary.com/dk143pqi/image/upload/c_fill,f_auto,g_auto,h_300,q_auto,w_400/v1/portfolio-map/photos/three-friends-wearing-lei-hawaii",
        "photoFull": "https://res.cloudinary.com/dk143pqi/image/upload/c_limit,f_auto,h_1200,q_auto,w_1200/v1/portfolio-map/photos/three-friends-wearing-lei-hawaii",
        "publicId": "portfolio-map/photos/three-friends-wearing-lei-hawaii"
      }
    },
    {
      "type": "Feature",
      "geometry": {
        "type": "Point",
        "coordinates": [
          121.84356666666666,
          25.108494444444446
        ]
      },
      "properties": {
        "title": "Traditional Chinese Building Red Lanterns",
        "photo": "https://res.cloudinary.com/dk143pqi/image/upload/c_fill,f_auto,g_auto,h_300,q_auto,w_400/v1/portfolio-map/photos/traditional-chinese-building-red-lanterns",
        "photoFull": "https://res.cloudinary.com/dk143pqi/image/upload/c_limit,f_auto,h_1200,q_auto,w_1200/v1/portfolio-map/photos/traditional-chinese-building-red-lanterns",
        "publicId": "portfolio-map/photos/traditional-chinese-building-red-lanterns"
      }
    },
    {
      "type": "Feature",
      "geometry": {
        "type": "Point",
        "coordinates": [
          -64.82250277777777,
          32.251444444444445
        ]
      },
      "properties": {
        "title": "Turquoise Lagoon Rocky Cliffs",
        "photo": "https://res.cloudinary.com/dk143pqi/image/upload/c_fill,f_auto,g_auto,h_300,q_auto,w_400/v1/portfolio-map/photos/turquoise-lagoon-rocky-cliffs",
        "photoFull": "https://res.cloudinary.com/dk143pqi/image/upload/c_limit,f_auto,h_1200,q_auto,w_1200/v1/portfolio-map/photos/turquoise-lagoon-rocky-cliffs",
        "publicId": "portfolio-map/photos/turquoise-lagoon-rocky-cliffs"
      }
    },
    {
      "type": "Feature",
      "geometry": {
        "type": "Point",
        "coordinates": [
          120.90550277777778,
          23.854925
        ]
      },
      "properties": {
        "title": "Turquoise Lake Mountains Blue Sky",
        "photo": "https://res.cloudinary.com/dk143pqi/image/upload/c_fill,f_auto,g_auto,h_300,q_auto,w_400/v1/portfolio-map/photos/turquoise-lake-mountains-blue-sky",
        "photoFull": "https://res.cloudinary.com/dk143pqi/image/upload/c_limit,f_auto,h_1200,q_auto,w_1200/v1/portfolio-map/photos/turquoise-lake-mountains-blue-sky",
        "publicId": "portfolio-map/photos/turquoise-lake-mountains-blue-sky"
      }
    },
    {
      "type": "Feature",
      "geometry": {
        "type": "Point",
        "coordinates": [
          -73.99291944444444,
          40.747661111111114
        ]
      },
      "properties": {
        "title": "Two Men Office Portrait",
        "photo": "https://res.cloudinary.com/dk143pqi/image/upload/c_fill,f_auto,g_auto,h_300,q_auto,w_400/v1/portfolio-map/photos/two-men-office-portrait",
        "photoFull": "https://res.cloudinary.com/dk143pqi/image/upload/c_limit,f_auto,h_1200,q_auto,w_1200/v1/portfolio-map/photos/two-men-office-portrait",
        "publicId": "portfolio-map/photos/two-men-office-portrait"
      }
    },
    {
      "type": "Feature",
      "geometry": {
        "type": "Point",
        "coordinates": [
          -74.06098055555556,
          40.599611111111116
        ]
      },
      "properties": {
        "title": "Volunteers With Waste Diversion Sign",
        "photo": "https://res.cloudinary.com/dk143pqi/image/upload/c_fill,f_auto,g_auto,h_300,q_auto,w_400/v1/portfolio-map/photos/volunteers-with-waste-diversion-sign",
        "photoFull": "https://res.cloudinary.com/dk143pqi/image/upload/c_limit,f_auto,h_1200,q_auto,w_1200/v1/portfolio-map/photos/volunteers-with-waste-diversion-sign",
        "publicId": "portfolio-map/photos/volunteers-with-waste-diversion-sign"
      }
    },
    {
      "type": "Feature",
      "geometry": {
        "type": "Point",
        "coordinates": [
          120.66301666666668,
          24.144894444444443
        ]
      },
      "properties": {
        "title": "Whimsical Ice Cream Cone Display",
        "photo": "https://res.cloudinary.com/dk143pqi/image/upload/c_fill,f_auto,g_auto,h_300,q_auto,w_400/v1/portfolio-map/photos/whimsical-ice-cream-cone-display",
        "photoFull": "https://res.cloudinary.com/dk143pqi/image/upload/c_limit,f_auto,h_1200,q_auto,w_1200/v1/portfolio-map/photos/whimsical-ice-cream-cone-display",
        "publicId": "portfolio-map/photos/whimsical-ice-cream-cone-display"
      }
    }
  ]
}